IRIDIUM 126             
1 42809U 17039G   26005.16938553  .00000237  00000+0  77573-4 0  9990
2 42809  86.3941  61.7886 0002246 101.2137 258.9311 14.34216634446581
IRIDIUM 124             
1 42810U 17039H   26005.47158207  .00000587  00000+0  16864-3 0  9999
2 42810  86.4494 358.3827 0002456  90.1805 269.9677 14.43276210451644
IRIDIUM 128             
1 42811U 17039J   26005.29966176  .00000403  00000+0  13688-3 0  9990
2 42811  86.3964  93.2729 0002276  91.6787 268.4669 14.34216338446630
IRIDIUM 121             
1 42812U 17039K   26005.39771969  .00000043  00000+0  84093-5 0  9996
2 42812  86.3944  61.7195 0002169  91.9234 268.2210 14.34217664446494
IRIDIUM 133             
1 42955U 17061A   26005.47091131  .00000087  00000+0  24135-4 0  9992
2 42955  86.3963  93.3148 0002212  97.2647 262.8800 14.34217867431458
IRIDIUM 100             
1 42956U 17061B   26005.32502984  .00000103  00000+0  29564-4 0  9990
2 42956  86.3963  93.2988 0002122  98.5764 261.5672 14.34215518431436
IRIDIUM 122             
1 42957U 17061C   26005.29331651  .00000483  00000+0  16552-3 0  9991
2 42957  86.3963  93.3114 0002142  99.6299 260.5138 14.34216132431435
IRIDIUM 129             
1 42958U 17061D   26005.31868808  .00000082  00000+0  22359-4 0  9992
2 42958  86.3964  93.3659 0001793 104.8001 255.3394 14.34217534431457
